[Satellite]
VERSION=1.1
NAME=SL-3 R/B
NICKNAME=SL-3 R/B
TLE1=1 11849U 80051B   11059.64742788  .00001523  00000-0  60403-4 0  3845
TLE2=2 11849  97.7800 223.4159 0009596 233.0770 126.9626 15.27035480682455
